CCSDS_OMM_VERS = 2.0
CREATION_DATE  = 
ORIGINATOR     = 

OBJECT_NAME    = AETHER-11
OBJECT_ID      = 2026-004V
CENTER_NAME    = EARTH
REF_FRAME      = TEME
TIME_SYSTEM    = UTC
MEAN_ELEMENT_THEORY = SGP/SGP4

EPOCH          = 2026-02-07T13:54:28.179648
MEAN_MOTION    = 14.88035156
ECCENTRICITY   = .00046221
INCLINATION    = 97.8013
RA_OF_ASC_NODE = 39.3041
ARG_OF_PERICENTER = 170.1415
MEAN_ANOMALY   = 189.9893

EPHEMERIS_TYPE = 0
CLASSIFICATION_TYPE = U
NORAD_CAT_ID   = 67382
ELEMENT_SET_NO = 999
REV_AT_EPOCH   = 401
BSTAR          = .34743015E-3
MEAN_MOTION_DOT = .3138E-4
MEAN_MOTION_DDOT = 0

CCSDS_OMM_VERS = 2.0
CREATION_DATE  = 
ORIGINATOR     = 

OBJECT_NAME    = AETHER-12
OBJECT_ID      = 2026-004W
CENTER_NAME    = EARTH
REF_FRAME      = TEME
TIME_SYSTEM    = UTC
MEAN_ELEMENT_THEORY = SGP/SGP4

EPOCH          = 2026-02-07T14:01:35.087232
MEAN_MOTION    = 14.87764154
ECCENTRICITY   = .000493
INCLINATION    = 97.7988
RA_OF_ASC_NODE = 39.2917
ARG_OF_PERICENTER = 185.9931
MEAN_ANOMALY   = 174.1227

EPHEMERIS_TYPE = 0
CLASSIFICATION_TYPE = U
NORAD_CAT_ID   = 67383
ELEMENT_SET_NO = 999
REV_AT_EPOCH   = 401
BSTAR          = .3412659E-3
MEAN_MOTION_DOT = .306E-4
MEAN_MOTION_DDOT = 0

CCSDS_OMM_VERS = 2.0
CREATION_DATE  = 
ORIGINATOR     = 

OBJECT_NAME    = TWILIGHT X
OBJECT_ID      = 2026-004X
CENTER_NAME    = EARTH
REF_FRAME      = TEME
TIME_SYSTEM    = UTC
MEAN_ELEMENT_THEORY = SGP/SGP4

EPOCH          = 2026-02-07T13:50:39.972192
MEAN_MOTION    = 14.88184134
ECCENTRICITY   = .00039784
INCLINATION    = 97.7987
RA_OF_ASC_NODE = 39.3015
ARG_OF_PERICENTER = 171.4134
MEAN_ANOMALY   = 188.7151

EPHEMERIS_TYPE = 0
CLASSIFICATION_TYPE = U
NORAD_CAT_ID   = 67384
ELEMENT_SET_NO = 999
REV_AT_EPOCH   = 401
BSTAR          = .55128255E-3
MEAN_MOTION_DOT = .503E-4
MEAN_MOTION_DDOT = 0

CCSDS_OMM_VERS = 2.0
CREATION_DATE  = 
ORIGINATOR     = 

OBJECT_NAME    = TWILIGHT Y
OBJECT_ID      = 2026-004Y
CENTER_NAME    = EARTH
REF_FRAME      = TEME
TIME_SYSTEM    = UTC
MEAN_ELEMENT_THEORY = SGP/SGP4

EPOCH          = 2026-02-07T13:47:52.754496
MEAN_MOTION    = 14.88448700
ECCENTRICITY   = .00040955
INCLINATION    = 97.8000
RA_OF_ASC_NODE = 39.3067
ARG_OF_PERICENTER = 163.4446
MEAN_ANOMALY   = 196.6905

EPHEMERIS_TYPE = 0
CLASSIFICATION_TYPE = U
NORAD_CAT_ID   = 67385
ELEMENT_SET_NO = 999
REV_AT_EPOCH   = 401
BSTAR          = .80014261E-3
MEAN_MOTION_DOT = .7376E-4
MEAN_MOTION_DDOT = 0

CCSDS_OMM_VERS = 2.0
CREATION_DATE  = 
ORIGINATOR     = 

OBJECT_NAME    = TWILIGHT Z
OBJECT_ID      = 2026-004Z
CENTER_NAME    = EARTH
REF_FRAME      = TEME
TIME_SYSTEM    = UTC
MEAN_ELEMENT_THEORY = SGP/SGP4

EPOCH          = 2026-02-07T13:46:10.206336
MEAN_MOTION    = 14.88366803
ECCENTRICITY   = .00028385
INCLINATION    = 97.7981
RA_OF_ASC_NODE = 39.3046
ARG_OF_PERICENTER = 161.3862
MEAN_ANOMALY   = 198.7459

EPHEMERIS_TYPE = 0
CLASSIFICATION_TYPE = U
NORAD_CAT_ID   = 67386
ELEMENT_SET_NO = 999
REV_AT_EPOCH   = 401
BSTAR          = .37418392E-3
MEAN_MOTION_DOT = .3411E-4
MEAN_MOTION_DDOT = 0

CCSDS_OMM_VERS = 2.0
CREATION_DATE  = 
ORIGINATOR     = 

OBJECT_NAME    = TWILIGHT AA
OBJECT_ID      = 2026-004AA
CENTER_NAME    = EARTH
REF_FRAME      = TEME
TIME_SYSTEM    = UTC
MEAN_ELEMENT_THEORY = SGP/SGP4

EPOCH          = 2026-02-07T13:38:52.652544
MEAN_MOTION    = 14.88752156
ECCENTRICITY   = .00040701
INCLINATION    = 97.8031
RA_OF_ASC_NODE = 39.3208
ARG_OF_PERICENTER = 135.3403
MEAN_ANOMALY   = 224.8143

EPHEMERIS_TYPE = 0
CLASSIFICATION_TYPE = U
NORAD_CAT_ID   = 67387
ELEMENT_SET_NO = 999
REV_AT_EPOCH   = 401
BSTAR          = .77031997E-3
MEAN_MOTION_DOT = .7153E-4
MEAN_MOTION_DDOT = 0

CCSDS_OMM_VERS = 2.0
CREATION_DATE  = 
ORIGINATOR     = 

OBJECT_NAME    = TWILIGHT AB
OBJECT_ID      = 2026-004AB
CENTER_NAME    = EARTH
REF_FRAME      = TEME
TIME_SYSTEM    = UTC
MEAN_ELEMENT_THEORY = SGP/SGP4

EPOCH          = 2026-02-07T13:35:52.754784
MEAN_MOTION    = 14.88851747
ECCENTRICITY   = .00036135
INCLINATION    = 97.8020
RA_OF_ASC_NODE = 39.3214
ARG_OF_PERICENTER = 125.9141
MEAN_ANOMALY   = 234.2411

EPHEMERIS_TYPE = 0
CLASSIFICATION_TYPE = U
NORAD_CAT_ID   = 67388
ELEMENT_SET_NO = 999
REV_AT_EPOCH   = 401
BSTAR          = .77126119E-3
MEAN_MOTION_DOT = .7179E-4
MEAN_MOTION_DDOT = 0

CCSDS_OMM_VERS = 2.0
CREATION_DATE  = 
ORIGINATOR     = 

OBJECT_NAME    = TWILIGHT AC
OBJECT_ID      = 2026-004AC
CENTER_NAME    = EARTH
REF_FRAME      = TEME
TIME_SYSTEM    = UTC
MEAN_ELEMENT_THEORY = SGP/SGP4

EPOCH          = 2026-02-07T12:38:47.838048
MEAN_MOTION    = 15.17187672
ECCENTRICITY   = .00054081
INCLINATION    = 97.4580
RA_OF_ASC_NODE = 39.4616
ARG_OF_PERICENTER = 77.7121
MEAN_ANOMALY   = 282.4718

EPHEMERIS_TYPE = 0
CLASSIFICATION_TYPE = U
NORAD_CAT_ID   = 67389
ELEMENT_SET_NO = 999
REV_AT_EPOCH   = 408
BSTAR          = .37283001E-3
MEAN_MOTION_DOT = .7344E-4
MEAN_MOTION_DDOT = 0

CCSDS_OMM_VERS = 2.0
CREATION_DATE  = 
ORIGINATOR     = 

OBJECT_NAME    = CONNECTA IOT-16
OBJECT_ID      = 2026-004AD
CENTER_NAME    = EARTH
REF_FRAME      = TEME
TIME_SYSTEM    = UTC
MEAN_ELEMENT_THEORY = SGP/SGP4

EPOCH          = 2026-02-07T12:39:15.105024
MEAN_MOTION    = 15.16900163
ECCENTRICITY   = .0005666
INCLINATION    = 97.4582
RA_OF_ASC_NODE = 39.4627
ARG_OF_PERICENTER = 74.7250
MEAN_ANOMALY   = 285.4609

EPHEMERIS_TYPE = 0
CLASSIFICATION_TYPE = U
NORAD_CAT_ID   = 67390
ELEMENT_SET_NO = 999
REV_AT_EPOCH   = 408
BSTAR          = .16304366E-3
MEAN_MOTION_DOT = .3146E-4
MEAN_MOTION_DDOT = 0

CCSDS_OMM_VERS = 2.0
CREATION_DATE  = 
ORIGINATOR     = 

OBJECT_NAME    = FLAMINGO-1
OBJECT_ID      = 2026-004AE
CENTER_NAME    = EARTH
REF_FRAME      = TEME
TIME_SYSTEM    = UTC
MEAN_ELEMENT_THEORY = SGP/SGP4

EPOCH          = 2026-02-07T14:08:46.739040
MEAN_MOTION    = 15.17287635
ECCENTRICITY   = .00071321
INCLINATION    = 97.4532
RA_OF_ASC_NODE = 39.5137
ARG_OF_PERICENTER = 66.4686
MEAN_ANOMALY   = 293.7296

EPHEMERIS_TYPE = 0
CLASSIFICATION_TYPE = U
NORAD_CAT_ID   = 67391
ELEMENT_SET_NO = 999
REV_AT_EPOCH   = 409
BSTAR          = .62104522E-3
MEAN_MOTION_DOT = .12325E-3
MEAN_MOTION_DDOT = 0

CCSDS_OMM_VERS = 2.0
CREATION_DATE  = 
ORIGINATOR     = 

OBJECT_NAME    = TWILIGHT AF
OBJECT_ID      = 2026-004AF
CENTER_NAME    = EARTH
REF_FRAME      = TEME
TIME_SYSTEM    = UTC
MEAN_ELEMENT_THEORY = SGP/SGP4

EPOCH          = 2026-02-07T15:31:48.398016
MEAN_MOTION    = 15.18175107
ECCENTRICITY   = .00084201
INCLINATION    = 97.4425
RA_OF_ASC_NODE = 39.5241
ARG_OF_PERICENTER = 67.7094
MEAN_ANOMALY   = 292.5032

EPHEMERIS_TYPE = 0
CLASSIFICATION_TYPE = U
NORAD_CAT_ID   = 67392
ELEMENT_SET_NO = 999
REV_AT_EPOCH   = 410
BSTAR          = .20328281E-2
MEAN_MOTION_DOT = .41712E-3
MEAN_MOTION_DDOT = 0

CCSDS_OMM_VERS = 2.0
CREATION_DATE  = 
ORIGINATOR     = 

OBJECT_NAME    = TWILIGHT AG
OBJECT_ID      = 2026-004AG
CENTER_NAME    = EARTH
REF_FRAME      = TEME
TIME_SYSTEM    = UTC
MEAN_ELEMENT_THEORY = SGP/SGP4

EPOCH          = 2026-02-07T15:31:04.911168
MEAN_MOTION    = 15.18023661
ECCENTRICITY   = .00071115
INCLINATION    = 97.4565
RA_OF_ASC_NODE = 39.6222
ARG_OF_PERICENTER = 85.3505
MEAN_ANOMALY   = 274.8541

EPHEMERIS_TYPE = 0
CLASSIFICATION_TYPE = U
NORAD_CAT_ID   = 67393
ELEMENT_SET_NO = 999
REV_AT_EPOCH   = 410
BSTAR          = .63386202E-3
MEAN_MOTION_DOT = .1285E-3
MEAN_MOTION_DDOT = 0

