AETHER-11               
1 67382U 26004V   26038.57949282  .00003138  00000+0  34743-3 0  9991
2 67382  97.8013  39.3041 0004622 170.1415 189.9893 14.88035156  4012
AETHER-12               
1 67383U 26004W   26038.58443388  .00003060  00000+0  34127-3 0  9999
2 67383  97.7988  39.2917 0004930 185.9931 174.1227 14.87764154  4016
TWILIGHT X              
1 67384U 26004X   26038.57685153  .00005030  00000+0  55128-3 0  9990
2 67384  97.7987  39.3015 0003978 171.4134 188.7151 14.88184134  4014
TWILIGHT Y              
1 67385U 26004Y   26038.57491614  .00007376  00000+0  80014-3 0  9995
2 67385  97.8000  39.3067 0004095 163.4446 196.6905 14.88448700  4014
TWILIGHT Z              
1 67386U 26004Z   26038.57372924  .00003411  00000+0  37418-3 0  9994
2 67386  97.7981  39.3046 0002838 161.3862 198.7459 14.88366803  4011
LEMUR-2-KATIE           
1 67387U 26004AA  26038.56866496  .00007153  00000+0  77032-3 0  9999
2 67387  97.8031  39.3208 0004070 135.3403 224.8143 14.88752156  4012
LEMUR-2-HCS-BAZUS       
1 67388U 26004AB  26038.56658281  .00007179  00000+0  77126-3 0  9993
2 67388  97.8020  39.3214 0003613 125.9141 234.2411 14.88851747  4013
TWILIGHT AC             
1 67389U 26004AC  26038.52694257  .00007344  00000+0  37283-3 0  9997
2 67389  97.4580  39.4616 0005408  77.7121 282.4718 15.17187672  4088
CONNECTA IOT-16         
1 67390U 26004AD  26038.52725816  .00003146  00000+0  16304-3 0  9992
2 67390  97.4582  39.4627 0005666  74.7250 285.4609 15.16900163  4089
FLAMINGO-1              
1 67391U 26004AE  26038.58942985  .00012325  00000+0  62105-3 0  9996
2 67391  97.4532  39.5137 0007132  66.4686 293.7296 15.17287635  4091
HAWK-13A                
1 67392U 26004AF  26038.64708794  .00041712  00000+0  20328-2 0  9994
2 67392  97.4425  39.5241 0008420  67.7094 292.5032 15.18175107  4105
HAWK-13C                
1 67393U 26004AG  26038.64658462  .00012850  00000+0  63386-3 0  9994
2 67393  97.4565  39.6222 0007111  85.3505 274.8541 15.18023661  4105
